start=new Date('2022-04-30T00:00:00.000Z').valueOf();
sats=[{"CLASSIFICATION_TYPE":"U","MEAN_ELEMENT_THEORY":"SGP4","OBJECT_NAME":"STARLINK-3126","LAUNCH_DATE":"2021-11-13","SEMIMAJOR_AXIS":"6917.894","GP_ID":"202311148","PERIAPSIS":"538.342","ARG_OF_PERICENTER":"38.3376","EPHEMERIS_TYPE":"0","TIME_SYSTEM":"UTC","REV_AT_EPOCH":"356","ELEMENT_SET_NO":"999","MEAN_ANOMALY":"89.4982","OBJECT_TYPE":"PAYLOAD","RA_OF_ASC_NODE":"57.8367","DECAY_DATE":null,"NORAD_CAT_ID":"49444","MEAN_MOTION":"15.08835492","INCLINATION":"53.2200","MEAN_MOTION_DOT":"-0.00013931","TLE_LINE1":"1 49444U 21104AN  22119.91667824 -.00013931  00000-0 -85896-3 0  9999","APOAPSIS":"541.177","CENTER_NAME":"EARTH","RCS_SIZE":"LARGE","EPOCH":"2022-04-29T22:00:00.999936","BSTAR":"-0.00085896000000","REF_FRAME":"TEME","ECCENTRICITY":"0.00020490","COUNTRY_CODE":"US","OBJECT_ID":"2021-104AN","MEAN_MOTION_DDOT":"0.0000000000000","TLE_LINE2":"2 49444  53.2200  57.8367 0002049  38.3376  89.4982 15.08835492  3569","SITE":"AFETR","PERIOD":"95.438","FILE":"3421985"},{"RCS_SIZE":"LARGE","CENTER_NAME":"EARTH","APOAPSIS":"541.395","TLE_LINE1":"1 49445U 21104AP  22119.91667824  .00008441  00000-0  54807-3 0  9996","MEAN_MOTION_DOT":"0.00008441","INCLINATION":"53.2169","MEAN_MOTION":"15.08822873","DECAY_DATE":null,"NORAD_CAT_ID":"49445","FILE":"3421985","PERIOD":"95.439","TLE_LINE2":"2 49445  53.2169  67.8428 0002309  34.4266  18.4018 15.08822873  3579","SITE":"AFETR","MEAN_MOTION_DDOT":"0.0000000000000","OBJECT_ID":"2021-104AP","COUNTRY_CODE":"US","ECCENTRICITY":"0.00023090","REF_FRAME":"TEME","EPOCH":"2022-04-29T22:00:00.999936","BSTAR":"0.00054807000000","ARG_OF_PERICENTER":"34.4266","PERIAPSIS":"538.200","GP_ID":"202311398","SEMIMAJOR_AXIS":"6917.933","LAUNCH_DATE":"2021-11-13","OBJECT_NAME":"STARLINK-3122","MEAN_ELEMENT_THEORY":"SGP4","CLASSIFICATION_TYPE":"U","RA_OF_ASC_NODE":"67.8428","OBJECT_TYPE":"PAYLOAD","MEAN_ANOMALY":"18.4018","ELEMENT_SET_NO":"999","REV_AT_EPOCH":"357","EPHEMERIS_TYPE":"0","TIME_SYSTEM":"UTC"},{"OBJECT_TYPE":"PAYLOAD","RA_OF_ASC_NODE":"57.8338","MEAN_ANOMALY":"115.8736","ELEMENT_SET_NO":"999","REV_AT_EPOCH":"360","EPHEMERIS_TYPE":"0","TIME_SYSTEM":"UTC","ARG_OF_PERICENTER":"31.9559","PERIAPSIS":"538.211","GP_ID":"202312150","SEMIMAJOR_AXIS":"6917.942","OBJECT_NAME":"STARLINK-3099","LAUNCH_DATE":"2021-11-13","MEAN_ELEMENT_THEORY":"SGP4","CLASSIFICATION_TYPE":"U","FILE":"3421985","PERIOD":"95.439","SITE":"AFETR","TLE_LINE2":"2 49446  53.2194  57.8338 0002308  31.9559 115.8736 15.08819766  3603","MEAN_MOTION_DDOT":"0.0000000000000","OBJECT_ID":"2021-104AQ","COUNTRY_CODE":"US","ECCENTRICITY":"0.00023080","REF_FRAME":"TEME","EPOCH":"2022-04-29T22:00:00.999936","BSTAR":"-0.00033235000000","RCS_SIZE":"LARGE","CENTER_NAME":"EARTH","APOAPSIS":"541.404","TLE_LINE1":"1 49446U 21104AQ  22119.91667824 -.00005571  00000-0 -33235-3 0  9992","MEAN_MOTION_DOT":"-0.00005571","INCLINATION":"53.2194","MEAN_MOTION":"15.08819766","NORAD_CAT_ID":"49446","DECAY_DATE":null},{"DECAY_DATE":null,"NORAD_CAT_ID":"49447","INCLINATION":"53.2163","MEAN_MOTION":"15.08828304","TLE_LINE1":"1 49447U 21104AR  22119.91667824 -.00003557  00000-0 -20551-3 0  9992","MEAN_MOTION_DOT":"-0.00003557","RCS_SIZE":"LARGE","CENTER_NAME":"EARTH","APOAPSIS":"541.438","ECCENTRICITY":"0.00023950","REF_FRAME":"TEME","EPOCH":"2022-04-29T22:00:00.999936","BSTAR":"-0.00020551000000","OBJECT_ID":"2021-104AR","COUNTRY_CODE":"US","PERIOD":"95.438","SITE":"AFETR","TLE_LINE2":"2 49447  53.2163  67.8511 0002395  31.2515  61.5957 15.08828304  3571","MEAN_MOTION_DDOT":"0.0000000000000","FILE":"3421985","OBJECT_NAME":"STARLINK-3115","LAUNCH_DATE":"2021-11-13","MEAN_ELEMENT_THEORY":"SGP4","CLASSIFICATION_TYPE":"U","SEMIMAJOR_AXIS":"6917.916","GP_ID":"202312894","ARG_OF_PERICENTER":"31.2515","PERIAPSIS":"538.124","REV_AT_EPOCH":"357","TIME_SYSTEM":"UTC","EPHEMERIS_TYPE":"0","MEAN_ANOMALY":"61.5957","ELEMENT_SET_NO":"999","OBJECT_TYPE":"PAYLOAD","RA_OF_ASC_NODE":"67.8511"},{"PERIOD":"95.438","SITE":"AFETR","TLE_LINE2":"2 49448  53.2175  67.8466 0002182  42.4446 350.3819 15.08833761  3608","MEAN_MOTION_DDOT":"0.0000000000000","FILE":"3421985","ECCENTRICITY":"0.00021820","REF_FRAME":"TEME","BSTAR":"-0.00131730000000","EPOCH":"2022-04-29T22:00:00.999936","OBJECT_ID":"2021-104AS","COUNTRY_CODE":"US","TLE_LINE1":"1 49448U 21104AS  22119.91667824 -.00021189  00000-0 -13173-2 0  9995","MEAN_MOTION_DOT":"-0.00021189","CENTER_NAME":"EARTH","RCS_SIZE":"LARGE","APOAPSIS":"541.274","DECAY_DATE":null,"NORAD_CAT_ID":"49448","INCLINATION":"53.2175","MEAN_MOTION":"15.08833761","OBJECT_TYPE":"PAYLOAD","RA_OF_ASC_NODE":"67.8466","REV_AT_EPOCH":"360","EPHEMERIS_TYPE":"0","TIME_SYSTEM":"UTC","MEAN_ANOMALY":"350.3819","ELEMENT_SET_NO":"999","GP_ID":"202311642","SEMIMAJOR_AXIS":"6917.899","ARG_OF_PERICENTER":"42.4446","PERIAPSIS":"538.255","LAUNCH_DATE":"2021-11-13","OBJECT_NAME":"STARLINK-3097","MEAN_ELEMENT_THEORY":"SGP4","CLASSIFICATION_TYPE":"U"},{"CLASSIFICATION_TYPE":"U","LAUNCH_DATE":"2021-11-13","OBJECT_NAME":"STARLINK-3137","MEAN_ELEMENT_THEORY":"SGP4","SEMIMAJOR_AXIS":"6917.930","GP_ID":"202311892","PERIAPSIS":"538.380","ARG_OF_PERICENTER":"36.5412","EPHEMERIS_TYPE":"0","TIME_SYSTEM":"UTC","REV_AT_EPOCH":"360","ELEMENT_SET_NO":"999","MEAN_ANOMALY":"76.2930","OBJECT_TYPE":"PAYLOAD","RA_OF_ASC_NODE":"67.8257","DECAY_DATE":null,"NORAD_CAT_ID":"49449","MEAN_MOTION":"15.08823696","INCLINATION":"53.2191","TLE_LINE1":"1 49449U 21104AT  22119.91667824  .00006088  00000-0  40042-3 0  9991","MEAN_MOTION_DOT":"0.00006088","APOAPSIS":"541.211","RCS_SIZE":"LARGE","CENTER_NAME":"EARTH","EPOCH":"2022-04-29T22:00:00.999936","BSTAR":"0.00040042000000","ECCENTRICITY":"0.00020460","REF_FRAME":"TEME","OBJECT_ID":"2021-104AT","COUNTRY_CODE":"US","MEAN_MOTION_DDOT":"0.0000000000000","PERIOD":"95.439","TLE_LINE2":"2 49449  53.2191  67.8257 0002046  36.5412  76.2930 15.08823696  3605","SITE":"AFETR","FILE":"3421985"},{"RA_OF_ASC_NODE":"67.8532","OBJECT_TYPE":"PAYLOAD","EPHEMERIS_TYPE":"0","TIME_SYSTEM":"UTC","REV_AT_EPOCH":"357","ELEMENT_SET_NO":"999","MEAN_ANOMALY":"32.7678","GP_ID":"202312644","SEMIMAJOR_AXIS":"6917.869","PERIAPSIS":"538.371","ARG_OF_PERICENTER":"40.0594","CLASSIFICATION_TYPE":"U","MEAN_ELEMENT_THEORY":"SGP4","LAUNCH_DATE":"2021-11-13","OBJECT_NAME":"STARLINK-3127","MEAN_MOTION_DDOT":"0.0000000000000","SITE":"AFETR","TLE_LINE2":"2 49450  53.2165  67.8532 0001970  40.0594  32.7678 15.08843827  3570","PERIOD":"95.437","FILE":"3421985","EPOCH":"2022-04-29T22:00:00.999936","BSTAR":"-0.00220460000000","REF_FRAME":"TEME","ECCENTRICITY":"0.00019700","COUNTRY_CODE":"US","OBJECT_ID":"2021-104AU","MEAN_MOTION_DOT":"-0.00035208","TLE_LINE1":"1 49450U 21104AU  22119.91667824 -.00035208  00000-0 -22046-2 0  9994","APOAPSIS":"541.097","CENTER_NAME":"EARTH","RCS_SIZE":"LARGE","NORAD_CAT_ID":"49450","DECAY_DATE":null,"MEAN_MOTION":"15.08843827","INCLINATION":"53.2165"},{"TIME_SYSTEM":"UTC","EPHEMERIS_TYPE":"0","REV_AT_EPOCH":"356","ELEMENT_SET_NO":"999","MEAN_ANOMALY":"95.6207","RA_OF_ASC_NODE":"67.8260","OBJECT_TYPE":"PAYLOAD","CLASSIFICATION_TYPE":"U","OBJECT_NAME":"STARLINK-3125","LAUNCH_DATE":"2021-11-13","MEAN_ELEMENT_THEORY":"SGP4","SEMIMAJOR_AXIS":"6917.862","GP_ID":"202312401","PERIAPSIS":"538.251","ARG_OF_PERICENTER":"37.2124","EPOCH":"2022-04-29T22:00:00.999936","BSTAR":"-0.00218010000000","ECCENTRICITY":"0.00021340","REF_FRAME":"TEME","OBJECT_ID":"2021-104AV","COUNTRY_CODE":"US","MEAN_MOTION_DDOT":"0.0000000000000","PERIOD":"95.437","SITE":"AFETR","TLE_LINE2":"2 49451  53.2184  67.8260 0002134  37.2124  95.6207 15.08845911  3561","FILE":"3421985","DECAY_DATE":null,"NORAD_CAT_ID":"49451","MEAN_MOTION":"15.08845911","INCLINATION":"53.2184","TLE_LINE1":"1 49451U 21104AV  22119.91667824 -.00034824  00000-0 -21801-2 0  9996","MEAN_MOTION_DOT":"-0.00034824","APOAPSIS":"541.204","CENTER_NAME":"EARTH","RCS_SIZE":"LARGE"},{"CLASSIFICATION_TYPE":"U","MEAN_ELEMENT_THEORY":"SGP4","OBJECT_NAME":"STARLINK-3150","LAUNCH_DATE":"2021-11-13","PERIAPSIS":"538.266","ARG_OF_PERICENTER":"38.2719","GP_ID":"202311149","SEMIMAJOR_AXIS":"6917.885","ELEMENT_SET_NO":"999","MEAN_ANOMALY":"169.3570","EPHEMERIS_TYPE":"0","TIME_SYSTEM":"UTC","REV_AT_EPOCH":"356","RA_OF_ASC_NODE":"67.8218","OBJECT_TYPE":"PAYLOAD","MEAN_MOTION":"15.08838337","INCLINATION":"53.2182","DECAY_DATE":null,"NORAD_CAT_ID":"49452","APOAPSIS":"541.235","CENTER_NAME":"EARTH","RCS_SIZE":"LARGE","MEAN_MOTION_DOT":"-0.00034922","TLE_LINE1":"1 49452U 21104AW  22119.91667824 -.00034922  00000-0 -21868-2 0  9999","COUNTRY_CODE":"US","OBJECT_ID":"2021-104AW","BSTAR":"-0.00218680000000","EPOCH":"2022-04-29T22:00:00.999936","REF_FRAME":"TEME","ECCENTRICITY":"0.00021460","FILE":"3421985","MEAN_MOTION_DDOT":"0.0000000000000","TLE_LINE2":"2 49452  53.2182  67.8218 0002146  38.2719 169.3570 15.08838337  3563","SITE":"AFETR","PERIOD":"95.438"},{"LAUNCH_DATE":"2021-11-13","OBJECT_NAME":"STARLINK-3129","MEAN_ELEMENT_THEORY":"SGP4","CLASSIFICATION_TYPE":"U","GP_ID":"202311399","SEMIMAJOR_AXIS":"6917.924","ARG_OF_PERICENTER":"36.8472","PERIAPSIS":"538.432","REV_AT_EPOCH":"356","EPHEMERIS_TYPE":"0","TIME_SYSTEM":"UTC","MEAN_ANOMALY":"135.9900","ELEMENT_SET_NO":"999","OBJECT_TYPE":"PAYLOAD","RA_OF_ASC_NODE":"67.8238","DECAY_DATE":null,"NORAD_CAT_ID":"49453","INCLINATION":"53.2187","MEAN_MOTION":"15.08825687","TLE_LINE1":"1 49453U 21104AX  22119.91667824  .00010236  00000-0  66056-3 0  9999","MEAN_MOTION_DOT":"0.00010236","CENTER_NAME":"EARTH","RCS_SIZE":"LARGE","APOAPSIS":"541.146","ECCENTRICITY":"0.00019620","REF_FRAME":"TEME","EPOCH":"2022-04-29T22:00:00.999936","BSTAR":"0.00066056000000","OBJECT_ID":"2021-104AX","COUNTRY_CODE":"US","PERIOD":"95.438","TLE_LINE2":"2 49453  53.2187  67.8238 0001962  36.8472 135.9900 15.08825687  3566","SITE":"AFETR","MEAN_MOTION_DDOT":"0.0000000000000","FILE":"3421985"}];
